[{"OBJECT_NAME":"FLYING LAPTOP","OBJECT_ID":"2017-042G","EPOCH":"2026-03-09T23:28:27.762240","MEAN_MOTION":15.00523488,"ECCENTRICITY":0.00192138,"INCLINATION":97.4274,"RA_OF_ASC_NODE":228.6392,"ARG_OF_PERICENTER":94.5564,"MEAN_ANOMALY":265.7856,"EPHEMERIS_TYPE":0,"CLASSIFICATION_TYPE":"U","NORAD_CAT_ID":42831,"ELEMENT_SET_NO":999,"REV_AT_EPOCH":47157,"BSTAR":0.00042943592,"MEAN_MOTION_DOT":5.379e-5,"MEAN_MOTION_DDOT":0},{"OBJECT_NAME":"STARLINK-34498","OBJECT_ID":"2025-129K","EPOCH":"2026-03-09T09:45:49.316256","MEAN_MOTION":14.98328884,"ECCENTRICITY":0.00035194,"INCLINATION":70.0007,"RA_OF_ASC_NODE":75.2252,"ARG_OF_PERICENTER":269.6589,"MEAN_ANOMALY":90.4167,"EPHEMERIS_TYPE":0,"CLASSIFICATION_TYPE":"U","NORAD_CAT_ID":64421,"ELEMENT_SET_NO":999,"REV_AT_EPOCH":4124,"BSTAR":0.00015562698,"MEAN_MOTION_DOT":1.764e-5,"MEAN_MOTION_DDOT":0}]
